{
  "type": "FeatureCollection",
  "features": [
    {
      "type": "Feature",
      "properties": {
        "norad_id": 37535,
        "name": "COSMOS 2251 DEB",
        "group": "cosmos-2251-debris",
        "lat": -65.97523472926359,
        "lon": -94.20287132214348,
        "alt_km": 698.0225823538331,
        "timestamp": "2025-12-27T06:41:31.323582+00:00",
        "meta_object_name": "COSMOS 2251 DEB",
        "meta_object_id": "1993-036BNQ",
        "meta_epoch": "2025-12-26T20:12:03.430368",
        "meta_mean_motion": 14.58545393,
        "meta_eccentricity": 0.00269835,
        "meta_inclination": 74.0234,
        "meta_ra_of_asc_node": 46.6343,
        "meta_arg_of_pericenter": 183.2015,
        "meta_mean_anomaly": 293.977,
        "meta_ephemeris_type": 0,
        "meta_classification_type": "U",
        "meta_norad_cat_id": 37535,
        "meta_element_set_no": 999,
        "meta_rev_at_epoch": 85530,
        "meta_bstar": 0.00066483294,
        "meta_mean_motion_dot": 3.078e-05,
        "meta_mean_motion_ddot": 0,
        "tle_line1": "1 37535U 93036BNQ 25360.84170637  .00003078  00000+0  66483-3 0  9993",
        "tle_line2": "2 37535  74.0234  46.6343 0026983 183.2015 293.9770 14.58545393855304"
      },
      "geometry": {
        "type": "Point",
        "coordinates": [
          -94.20287132214348,
          -65.97523472926359
        ]
      }
    },
    {
      "type": "Feature",
      "properties": {
        "norad_id": 37537,
        "name": "COSMOS 2251 DEB",
        "group": "cosmos-2251-debris",
        "lat": 60.243451744352264,
        "lon": -91.56757224718189,
        "alt_km": 736.9504143965833,
        "timestamp": "2025-12-27T06:41:31.323592+00:00",
        "meta_object_name": "COSMOS 2251 DEB",
        "meta_object_id": "1993-036BNS",
        "meta_epoch": "2025-12-26T23:42:52.766208",
        "meta_mean_motion": 14.37510306,
        "meta_eccentricity": 0.00509211,
        "meta_inclination": 74.011,
        "meta_ra_of_asc_node": 238.8669,
        "meta_arg_of_pericenter": 15.3956,
        "meta_mean_anomaly": 344.8732,
        "meta_ephemeris_type": 0,
        "meta_classification_type": "U",
        "meta_norad_cat_id": 37537,
        "meta_element_set_no": 999,
        "meta_rev_at_epoch": 85238,
        "meta_bstar": 0.00022011049,
        "meta_mean_motion_dot": 6.43e-06,
        "meta_mean_motion_ddot": 0,
        "tle_line1": "1 37537U 93036BNS 25360.98811072  .00000643  00000+0  22011-3 0  9999",
        "tle_line2": "2 37537  74.0110 238.8669 0050921  15.3956 344.8732 14.37510306852385"
      },
      "geometry": {
        "type": "Point",
        "coordinates": [
          -91.56757224718189,
          60.243451744352264
        ]
      }
    },
    {
      "type": "Feature",
      "properties": {
        "norad_id": 37546,
        "name": "COSMOS 2251 DEB",
        "group": "cosmos-2251-debris",
        "lat": -61.47717262429046,
        "lon": -78.87399963713949,
        "alt_km": 636.6063078310381,
        "timestamp": "2025-12-27T06:41:31.323602+00:00",
        "meta_object_name": "COSMOS 2251 DEB",
        "meta_object_id": "1993-036BPB",
        "meta_epoch": "2025-12-25T04:56:56.302944",
        "meta_mean_motion": 14.80966305,
        "meta_eccentricity": 0.0005402,
        "meta_inclination": 74.0212,
        "meta_ra_of_asc_node": 73.3979,
        "meta_arg_of_pericenter": 64.6896,
        "meta_mean_anomaly": 295.4839,
        "meta_ephemeris_type": 0,
        "meta_classification_type": "U",
        "meta_norad_cat_id": 37546,
        "meta_element_set_no": 999,
        "meta_rev_at_epoch": 66072,
        "meta_bstar": 0.0024894,
        "meta_mean_motion_dot": 0.000193,
        "meta_mean_motion_ddot": 0,
        "tle_line1": "1 37546U 93036BPB 25359.20620721  .00019300  00000+0  24894-2 0  9991",
        "tle_line2": "2 37546  74.0212  73.3979 0005402  64.6896 295.4839 14.80966305660724"
      },
      "geometry": {
        "type": "Point",
        "coordinates": [
          -78.87399963713949,
          -61.47717262429046
        ]
      }
    },
    {
      "type": "Feature",
      "properties": {
        "norad_id": 37959,
        "name": "COSMOS 2251 DEB",
        "group": "cosmos-2251-debris",
        "lat": -20.747105729291718,
        "lon": 23.00156827762292,
        "alt_km": 743.6037692918271,
        "timestamp": "2025-12-27T06:41:31.323612+00:00",
        "meta_object_name": "COSMOS 2251 DEB",
        "meta_object_id": "1993-036BPJ",
        "meta_epoch": "2025-12-22T13:53:21.860736",
        "meta_mean_motion": 14.58199594,
        "meta_eccentricity": 0.00571783,
        "meta_inclination": 74.0084,
        "meta_ra_of_asc_node": 38.1929,
        "meta_arg_of_pericenter": 178.962,
        "meta_mean_anomaly": 335.9914,
        "meta_ephemeris_type": 0,
        "meta_classification_type": "U",
        "meta_norad_cat_id": 37959,
        "meta_element_set_no": 999,
        "meta_rev_at_epoch": 80270,
        "meta_bstar": 0.00056222313,
        "meta_mean_motion_dot": 2.624e-05,
        "meta_mean_motion_ddot": 0,
        "tle_line1": "1 37959U 93036BPJ 25356.57872524  .00002624  00000+0  56222-3 0  9998",
        "tle_line2": "2 37959  74.0084  38.1929 0057178 178.9620 335.9914 14.58199594802707"
      },
      "geometry": {
        "type": "Point",
        "coordinates": [
          23.00156827762292,
          -20.747105729291718
        ]
      }
    },
    {
      "type": "Feature",
      "properties": {
        "norad_id": 37960,
        "name": "COSMOS 2251 DEB",
        "group": "cosmos-2251-debris",
        "lat": 72.88769111950715,
        "lon": -130.41021765853426,
        "alt_km": 863.8055723889784,
        "timestamp": "2025-12-27T06:41:31.323622+00:00",
        "meta_object_name": "COSMOS 2251 DEB",
        "meta_object_id": "1993-036BPK",
        "meta_epoch": "2025-12-23T05:04:36.493536",
        "meta_mean_motion": 14.07887566,
        "meta_eccentricity": 0.02481157,
        "meta_inclination": 74.0591,
        "meta_ra_of_asc_node": 168.5402,
        "meta_arg_of_pericenter": 184.7073,
        "meta_mean_anomaly": 175.1734,
        "meta_ephemeris_type": 0,
        "meta_classification_type": "U",
        "meta_norad_cat_id": 37960,
        "meta_element_set_no": 999,
        "meta_rev_at_epoch": 77553,
        "meta_bstar": 0.0007466601,
        "meta_mean_motion_dot": 1.655e-05,
        "meta_mean_motion_ddot": 0,
        "tle_line1": "1 37960U 93036BPK 25357.21153349  .00001655  00000+0  74666-3 0  9994",
        "tle_line2": "2 37960  74.0591 168.5402 0248115 184.7073 175.1734 14.07887566775537"
      },
      "geometry": {
        "type": "Point",
        "coordinates": [
          -130.41021765853426,
          72.88769111950715
        ]
      }
    },
    {
      "type": "Feature",
      "properties": {
        "norad_id": 37961,
        "name": "COSMOS 2251 DEB",
        "group": "cosmos-2251-debris",
        "lat": 35.51826835690688,
        "lon": 121.25189392092304,
        "alt_km": 720.8622970395336,
        "timestamp": "2025-12-27T06:41:31.323632+00:00",
        "meta_object_name": "COSMOS 2251 DEB",
        "meta_object_id": "1993-036BPL",
        "meta_epoch": "2025-12-13T03:18:27.462240",
        "meta_mean_motion": 14.57979799,
        "meta_eccentricity": 0.00406759,
        "meta_inclination": 74.0407,
        "meta_ra_of_asc_node": 136.3488,
        "meta_arg_of_pericenter": 216.8805,
        "meta_mean_anomaly": 142.9561,
        "meta_ephemeris_type": 0,
        "meta_classification_type": "U",
        "meta_norad_cat_id": 37961,
        "meta_element_set_no": 999,
        "meta_rev_at_epoch": 80071,
        "meta_bstar": 0.001729191,
        "meta_mean_motion_dot": 8.011e-05,
        "meta_mean_motion_ddot": 0,
        "tle_line1": "1 37961U 93036BPL 25347.13781785  .00008011  00000+0  17292-2 0  9990",
        "tle_line2": "2 37961  74.0407 136.3488 0040675 216.8805 142.9561 14.57979799800716"
      },
      "geometry": {
        "type": "Point",
        "coordinates": [
          121.25189392092304,
          35.51826835690688
        ]
      }
    },
    {
      "type": "Feature",
      "properties": {
        "norad_id": 37966,
        "name": "COSMOS 2251 DEB",
        "group": "cosmos-2251-debris",
        "lat": 18.83951667642019,
        "lon": 14.653285198794249,
        "alt_km": 522.2780488235903,
        "timestamp": "2025-12-27T06:41:31.323642+00:00",
        "meta_object_name": "COSMOS 2251 DEB",
        "meta_object_id": "1993-036BPR",
        "meta_epoch": "2025-12-13T08:51:38.421216",
        "meta_mean_motion": 15.12745257,
        "meta_eccentricity": 0.0008827,
        "meta_inclination": 73.9781,
        "meta_ra_of_asc_node": 229.2381,
        "meta_arg_of_pericenter": 105.5668,
        "meta_mean_anomaly": 254.6501,
        "meta_ephemeris_type": 0,
        "meta_classification_type": "U",
        "meta_norad_cat_id": 37966,
        "meta_element_set_no": 999,
        "meta_rev_at_epoch": 85352,
        "meta_bstar": 0.0033929269,
        "meta_mean_motion_dot": 0.00060007,
        "meta_mean_motion_ddot": 0,
        "tle_line1": "1 37966U 93036BPR 25347.36919469  .00060007  00000+0  33929-2 0  9990",
        "tle_line2": "2 37966  73.9781 229.2381 0008827 105.5668 254.6501 15.12745257853526"
      },
      "geometry": {
        "type": "Point",
        "coordinates": [
          14.653285198794249,
          18.83951667642019
        ]
      }
    }
  ]
}